HST                     
1 20580U 90037B   24306.23902334  .00018412  00000+0  80415-3 0  9991
2 20580  28.4662 145.1123 0002866  85.7251 274.3670 15.20704127698159
POLAR                   
1 23802U 96013A   24302.90611108  .00000146  00000+0  00000+0 0  9990
2 23802  79.2342 233.3568 5952470 229.2133  61.5675  1.29846988137116
SWAS                    
1 25560U 98071A   24306.00592046  .00010787  00000+0  81311-3 0  9993
2 25560  69.8974 310.1545 0003511  68.4088 291.7446 15.02669773408186
CXO                     
1 25867U 99040B   24308.01625054  .00000866  00000+0  00000+0 0  9998
2 25867  44.2586 142.7834 8739501 303.5226   0.3303  0.37811088 26241
XMM-NEWTON              
1 25989U 99066A   24308.02645869  .00000076  00000+0  00000+0 0  9991
2 25989  67.2424 290.9271 5013953  74.9988   0.1293  0.50139175 34408
TERRA                   
1 25994U 99068A   24306.51167234  .00002504  00000+0  52920-3 0  9996
2 25994  98.0323   5.8800 0001155 318.8191 154.0695 14.60167877323207
CLUSTER II-FM7 (SAMBA)  
1 26410U 00041A   24307.29232872  .00000561  00000+0  00000+0 0  9999
2 26410 140.8999   2.1210 7843613 217.2262   1.0295  0.44235820 29416
CLUSTER II-FM5 (RUMBA)  
1 26463U 00045A   24307.72902570  .00002915  00000+0  00000+0 0  9993
2 26463 152.9722  35.5300 8821504 251.7913   1.1831  0.42909432 17570
CLUSTER II-FM8 (TANGO)  
1 26464U 00045B   24307.29239448  .00000562  00000+0  00000+0 0  9999
2 26464 140.9115   2.1265 7843672 217.2381   1.0221  0.44220559 65336
ODIN                    
1 26702U 01007A   24305.77616682  .00033129  00000+0  11806-2 0  9997
2 26702  97.4708 320.8816 0008303 142.5897 217.5922 15.28817477297727
TIMED                   
1 26998U 01055B   24306.51482472  .00005191  00000+0  50866-3 0  9996
2 26998  74.0719 346.1995 0002658 311.2892  48.8061 14.92521333242444
INTEGRAL                
1 27540U 02048A   24304.64485959  .00000226  00000+0  00000+0 0  9993
2 27540  90.2902  14.7002 8623623 278.0587   6.4971  0.37574384 24401
CORIOLIS                
1 27640U 03001A   24305.96788707  .00000730  00000+0  36586-3 0  9999
2 27640  98.7153 311.0268 0015039 119.2235 241.0447 14.19617474130006
SORCE                   
1 27651U 03004A   24305.67132828  .00011836  00000+0  10098-2 0  9997
2 27651  39.9937  33.8660 0020197 122.2383 238.0370 14.97303586182694
MOST                    
1 27843U 03031D   24306.00759072  .00000564  00000+0  27997-3 0  9997
2 27843  98.7084 311.0402 0010207 159.1708 200.9887 14.21075490106457
SCISAT 1                
1 27858U 03036A   24305.86210131  .00004200  00000+0  56114-3 0  9993
2 27858  73.9306 269.0302 0005917 112.4102 247.7701 14.79861488143625
SWIFT                   
1 28485U 04047A   24306.12115420  .00041500  00000+0  15557-2 0  9997
2 28485  20.5566 276.8085 0007589 253.2251 106.7355 15.25526213 95214
CALIPSO                 
1 29108U 06016B   24305.84066479  .00005053  00000+0  91293-3 0  9990
2 29108  98.4322 291.2954 0001550  69.8379 290.2991 14.66879138985978
HINODE (SOLAR-B)        
1 29479U 06041A   24305.98744889  .00003460  00000+0  62291-3 0  9998
2 29479  98.0845 319.4391 0018150  12.9071 347.2595 14.67110071967849
SHIJIAN-6 02A (SJ-6 02A)
1 29505U 06046A   24306.52558488  .00017060  00000+0  11525-2 0  9996
2 29505  97.7095 333.5134 0004578  37.8061 322.3487 15.06640962982817
SHIJIAN-6 02B (SJ-6 02B)
1 29506U 06046B   24306.53371996  .00005582  00000+0  47292-3 0  9992
2 29506  97.7277 330.1648 0001990 172.2378 187.8875 14.98378160981893
FGRST (GLAST)           
1 33053U 08029A   24306.19965813  .00012683  00000+0  57895-3 0  9996
2 33053  25.5840 347.2021 0009645 191.0044 169.0282 15.18649305905635
SDO                     
1 36395U 10005A   24304.44030938 -.00000032  00000+0  00000+0 0  9990
2 36395  33.4048  95.4787 0001663 165.8324 194.8403  1.00273570 54109
CRYOSAT 2               
1 36508U 10013A   24306.50735006  .00000946  00000+0  23404-3 0  9992
2 36508  92.0160 134.2721 0003032 128.2341 231.9139 14.51897949772125
X-SAT                   
1 37389U 11015C   24306.49178431  .00000845  00000+0  37933-3 0  9994
2 37389  98.2999 302.9718 0012908 285.6292  74.3464 14.24854361703783
GCOM-W1 (SHIZUKU)       
1 38337U 12025A   24305.86655015  .00003654  00000+0  82024-3 0  9990
2 38337  98.2148 243.8930 0002357  64.2784   3.5004 14.57133699662638
NUSTAR                  
1 38358U 12031A   24306.00001157  .00027984  00000+0  21538-2 0  9993
2 38358   6.0254 134.8919 0009860 330.7466 252.6911 14.99325543  2196
NEOSSAT                 
1 39089U 13009D   24306.52000425  .00000996  00000+0  36186-3 0  9995
2 39089  98.4030 130.3112 0010457 208.5091 151.5524 14.35365835611710
BRITE-AUSTRIA           
1 39091U 13009F   24305.97027759  .00001237  00000+0  43979-3 0  9992
2 39091  98.3840 129.8090 0009712 206.2209 153.8487 14.36032589611909
IRIS                    
1 39197U 13033A   24305.98109753  .00006051  00000+0  74514-3 0  9990
2 39197  97.9575 135.9838 0026807  95.4931 264.9342 14.83062920612378
HISAKI (SPRINT-A)       
1 39253U 13049A   24306.23689015  .00000415  00000+0  46886-3 0  9992
2 39253  29.7222 354.3865 0136710 250.0983 108.4812 13.55437926551951
CASSIOPE                
1 39265U 13055A   24305.85303225  .00067438  00000+0  12834-2 0  9998
2 39265  80.9521  42.6032 0460089 199.6242 158.6753 14.79823565578532
STSAT-3                 
1 39422U 13066G   24306.49847758  .00011168  00000+0  97358-3 0  9994
2 39422  97.5383 280.6671 0017799 258.6920 101.2302 14.96912192595341
SWARM B                 
1 39451U 13067A   24305.92896037  .00010461  00000+0  45194-3 0  9994
2 39451  87.7520 161.6662 0002801  87.3281 272.8285 15.22370916592782
SWARM A                 
1 39452U 13067B   24305.86756725  .00022701  00000+0  64456-3 0  9999
2 39452  87.3362 273.7526 0003306  89.2134 270.9498 15.36074303614715
SWARM C                 
1 39453U 13067C   24305.86750363  .00024020  00000+0  68196-3 0  9993
2 39453  87.3363 272.3415 0003294  89.5456 270.6174 15.36075577614672
BRITE-CA1 (TORONTO)     
1 40020U 14033L   24306.32947288  .00004867  00000+0  77128-3 0  9997
2 40020  97.8972  78.8636 0082058  14.9173 345.4426 14.70397371555124
OCO 2                   
1 40059U 14035A   24305.85052867  .00003135  00000+0  70615-3 0  9999
2 40059  98.2150 244.6215 0001712 100.6496 259.4895 14.57078570549640
BRITE-PL2 (HEWELIUSZ)   
1 40119U 14049B   24305.85348879  .00008597  00000+0  88558-3 0  9994
2 40119  97.8876  45.0592 0014170 274.6814  85.2785 14.90430400552925
RESURS-P 2              
1 40360U 14087A   24306.52748176  .00113417  00000+0  72836-3 0  9993
2 40360  97.1418  35.1935 0004610 138.5673 221.5943 15.75891543552551
MMS 1                   
1 40482U 15011A   24306.08334491 -.00000281  00000+0  00000+0 0  9993
2 40482  55.5879   3.0743 8970015 153.1445 104.0190  0.28503090 15760
MMS 2                   
1 40483U 15011B   24306.08334491 -.00000281  00000+0  00000+0 0  9994
2 40483  55.5855   3.0761 8969922 153.1426 102.6999  0.28501957 15748
MMS 3                   
1 40484U 15011C   24306.08334491 -.00000281  00000+0  00000+0 0  9995
2 40484  55.5880   3.0741 8969797 153.1446 102.8636  0.28501824 15740
MMS 4                   
1 40485U 15011D   24306.16667824 -.00000280  00000+0  00000+0 0  9993
2 40485  55.5779   3.0793 8968308 153.1392 101.4027  0.28500591 15741
ASTROSAT                
1 40930U 15052A   24286.97102127  .00005503  00000+0  62345-3 0  9995
2 40930   5.9968 235.3878 0009191 298.9690  60.9517 14.80058093488886
DAMPE                   
1 41173U 15078A   24306.49454861  .00004998  00000+0  18468-3 0  9992
2 41173  97.4391 299.6194 0013352  24.8439 335.3441 15.28115420493946
PISAT                   
1 41784U 16059B   24305.76949522  .00004708  00000+0  84688-3 0  9998
2 41784  97.8272 321.5728 0028836 300.8002  59.0365 14.66794515432677
HXMT (HUIYAN)           
1 42758U 17034A   24306.52803283  .00025311  00000+0  12095-2 0  9997
2 42758  43.0137 232.8505 0012572 286.0687  73.8777 15.18495964407704
FLYING LAPTOP           
1 42831U 17042G   24306.19047159  .00009016  00000+0  79586-3 0  9996
2 42831  97.3903 119.3718 0012162 342.4309  17.6491 14.96538374397612
ZHANGHENG 1 (CSES)      
1 43194U 18015C   24306.52294246  .00036124  00000+0  16058-2 0  9992
2 43194  97.6256  91.7377 0009756  64.3940 295.8302 15.21380085374562
SALSAT                  
1 46495U 20068K   24305.82295493  .00020340  00000+0  10340-2 0  9998
2 46495  97.8337 268.9959 0011884 194.9174 165.1709 15.16834133224992
IXPE                    
1 49954U 21121A   24305.91668981  .00020564  00000+0  14913-2 0  9996
2 49954   0.2298  96.1018 0009045 154.5371 182.4110 15.01128772  5661
